TDRS 3                  
1 19548U 88091B   26159.90426799 -.00000291  00000+0  00000+0 0  9993
2 19548  12.6085 341.0539 0038416 356.3393 196.5351  1.00276770125301
FLTSATCOM 8 (USA 46)    
1 20253U 89077A   26159.93889439 -.00000358  00000+0  00000+0 0  9994
2 20253  12.4243 351.2165 0004657  49.6257 319.9512  1.00281757260489
SKYNET 4C               
1 20776U 90079A   26159.97907240  .00000134  00000+0  00000+0 0  9994
2 20776  13.3430 349.8671 0002567  94.6319 198.6885  1.00273398130808
TDRS 5                  
1 21639U 91054B   26159.73831110  .00000092  00000+0  00000+0 0  9996
2 21639  14.0723 353.8394 0006107 275.5639  85.8208  1.00271419127631
TDRS 6                  
1 22314U 93003B   26159.90504799 -.00000288  00000+0  00000+0 0  9990
2 22314  14.1828 357.1231 0007425 178.6596   1.4984  1.00274412122327
UFO 2 (USA 95)          
1 22787U 93056A   26159.75761093  .00000134  00000+0  00000+0 0  9996
2 22787  11.8922   3.6045 0006362   5.7150 189.1735  1.00272703118460
USA 99 (MILSTAR-1 1)    
1 22988U 94009A   26159.89531968  .00000019  00000+0  00000+0 0  9991
2 22988  17.6139  27.7910 0000919 204.2151  38.8718  0.98720635 32862
UFO 4 (USA 108)         
1 23467U 95003A   26159.80565956 -.00000012  00000+0  00000+0 0  9998
2 23467   9.7086  13.2625 0003048  56.6036 289.5346  1.00271289114861
TDRS 7                  
1 23613U 95035B   26159.75174507 -.00000230  00000+0  00000+0 0  9990
2 23613  13.3807 348.2510 0011093  75.8813 192.6746  1.00266681113165
USA 115 (MILSTAR-1 2)   
1 23712U 95060A   26159.62290117 -.00000167  00000+0  00000+0 0  9999
2 23712  14.0697   3.8104 0001675 132.4212 247.9450  1.00366008 32802
INMARSAT 3-F1           
1 23839U 96020A   26160.11085711 -.00000157  00000+0  00000+0 0  9993
2 23839  10.5853  46.7104 0003627  38.3495 125.6796  0.99980001110173
INMARSAT 3-F2           
1 24307U 96053A   26159.58210616 -.00000180  00000+0  00000+0 0  9999
2 24307   9.8387  54.0257 0006723  22.2271 187.9530  1.00004412108835
INMARSAT 3-F3           
1 24674U 96070A   26159.84824791  .00000132  00000+0  00000+0 0  9995
2 24674  10.3012  49.7346 0003542  17.5827 186.5429  0.99978755107821
AMC-3                   
1 24936U 97050A   26156.46923512 -.00000232  00000+0  00000+0 0  9993
2 24936   8.1165  64.2198 0010464 111.2215 173.9176  1.00107765 52317
USA 134                 
1 25019U 97065A   26160.20648083 -.00000054  00000+0  00000+0 0  9998
2 25019  12.7743  21.7801 0003463 339.3906 218.5464  1.00270394 32877
INMARSAT 3-F5           
1 25153U 98006B   26160.11727045 -.00000278  00000+0  00000+0 0  9997
2 25153   9.6746  53.3380 0004644  21.5043 170.9150  1.00271239103816
ABS-6                   
1 25924U 99053A   26159.94556774 -.00000102  00000+0  00000+0 0  9990
2 25924   0.0211 299.3985 0003465 144.7051 312.6356  1.00276655 97759
UFO 10 (USA 146)        
1 25967U 99063A   26160.09985240 -.00000177  00000+0  00000+0 0  9992
2 25967   9.8496  27.2538 0001875  25.9726 217.2689  1.00272679 97269
ASIASTAR                
1 26107U 00016A   26158.64794378 -.00000321  00000+0  00000+0 0  9998
2 26107   9.1019  58.2562 0004712  17.4232 158.6382  1.00273400 95823
USA 149 (DSP 20)        
1 26356U 00024A   26160.20787154  .00000103  00000+0  00000+0 0  9999
2 26356  13.1643  11.9070 0001604 310.3002 204.8024  1.00271898 32832
TDRS 8                  
1 26388U 00034A   26159.75768431 -.00000183  00000+0  00000+0 0  9999
2 26388  12.6709  31.3957 0004928  11.8401 211.4021  1.00268771 95096
NSS-11                  
1 26554U 00059A   26159.80635292  .00000041  00000+0  00000+0 0  9997
2 26554   2.1039  81.4887 0003044   0.0021 281.9856  1.00272503 41205
USA 153                 
1 26575U 00065A   26159.57124347 -.00000313  00000+0  00000+0 0  9998
2 26575  11.6099  35.4929 0003128  45.7539 155.8756  1.00271802 32847
AMC-6                   
1 26580U 00067A   26160.10125144  .00000105  00000+0  00000+0 0  9991
2 26580   0.1305  83.0126 0003626   4.4001  71.4789  1.00271450 93815
USA 157 (MILSTAR-2 2)   
1 26715U 01009A   26159.74177779  .00000120  00000+0  00000+0 0  9994
2 26715  11.5329  19.8141 0039178 177.1202 177.1527  1.00271507 32857
USA 159 (DSP 21)        
1 26880U 01033A   26159.97366882 -.00000200  00000+0  00000+0 0  9994
2 26880  12.7740  16.4968 0001482 127.2512  44.8451  0.99199497 32879
INTELSAT 902 (IS-902)   
1 26900U 01039A   26160.18030708 -.00000268  00000+0  00000+0 0  9997
2 26900   6.0961  71.8814 0004435   4.2713 196.2171  1.00272588 90619
USA 164 (MILSTAR-2 3)   
1 27168U 02001A   26159.84632779  .00000108  00000+0  00000+0 0  9993
2 27168  11.1692  21.9553 0099182   8.2785 190.6186  1.00274732 32877
INTELSAT 904 (IS-904)   
1 27380U 02007A   26160.14558604 -.00000210  00000+0  00000+0 0  9999
2 27380   6.8992  69.2795 0006729   0.8489 208.3114  1.00272942 51683
DIRECTV 5 (TEMPO 1)     
1 27426U 02023A   26159.62666436 -.00000042  00000+0  00000+0 0  9995
2 27426   4.8550  75.4161 0003365  12.2530 284.8416  1.00271594 88030
INTELSAT 905 (IS-905)   
1 27438U 02027A   26159.60380081  .00000109  00000+0  00000+0 0  9992
2 27438   6.7311  69.9025 0003954  14.5648 252.6814  1.00269870 51270
